ONEWEB-0032             
1 45141U 20008L   26142.65083058 -.00000061  00000+0 -21091-3 0  9999
2 45141  87.8849  41.3537 0002342  80.0815 280.0576 13.10370508304954
ONEWEB-0033             
1 45142U 20008M   26142.70215632  .00000660  00000+0  18547-2 0  9995
2 45142  87.8850  41.3511 0001346  75.5847 284.5430 13.10375362304878
ONEWEB-0035             
1 45143U 20008N   26142.41718786  .00000070  00000+0  16424-3 0  9990
2 45143  87.8845  41.4009 0001726  78.6367 281.4955 13.10883701304564
ONEWEB-0036             
1 45144U 20008P   26142.68777237  .00000126  00000+0  32693-3 0  9994
2 45144  87.8875  41.3498 0002058  82.2314 277.9046 13.09824650305020
ONEWEB-0038             
1 45145U 20008Q   26142.38055472 -.00000159  00000+0 -48381-3 0  9991
2 45145  87.8922  26.2076 0002370  35.6186 324.5099 13.11413937306948
ONEWEB-0039             
1 45146U 20008R   26142.70548473  .00000695  00000+0  19552-2 0  9996
2 45146  87.8855  41.3401 0002327  76.2978 283.8408 13.10373481304820
ONEWEB-0040             
1 45147U 20008S   26142.69883701  .00000573  00000+0  16038-2 0  9992
2 45147  87.8854  41.3529 0001837  75.1286 285.0045 13.10375518304527
ONEWEB-0043             
1 45149U 20008U   26142.70050623  .00000016  00000+0  84925-5 0  9990
2 45149  87.8858  41.3384 0002506  76.2914 283.8492 13.10377399304842
ONEWEB-0044             
1 45150U 20008V   26142.65235127 -.00000158  00000+0 -48979-3 0  9996
2 45150  87.8857  41.3478 0002015  76.9056 283.2296 13.10370441305136
ONEWEB-0045             
1 45151U 20008W   26142.37533726  .00000096  00000+0  23539-3 0  9996
2 45151  87.8916  26.1926 0001912  78.5760 281.5583 13.11413609307022
ONEWEB-0047             
1 45152U 20008X   26142.64567152  .00002444  00000+0  69608-2 0  9992
2 45152  87.8850  41.3488 0001819  74.2743 285.8585 13.10395937304851
ONEWEB-0048             
1 45153U 20008Y   26142.41166715  .00000415  00000+0  11535-2 0  9990
2 45153  87.8850  41.4186 0001817  78.7363 281.3969 13.10370811304438
ONEWEB-0049             
1 45154U 20008Z   26142.41485023  .00000247  00000+0  67269-3 0  9996
2 45154  87.8848  41.4067 0002061  90.5432 269.5931 13.10370398304656
ONEWEB-0051             
1 45155U 20008AA  26142.60253887  .00000200  00000+0  52960-3 0  9990
2 45155  87.8908  26.1569 0001867  82.5959 277.5381 13.11413957307739
ONEWEB-0052             
1 45156U 20008AB  26142.66410397 -.00000637  00000+0 -18609-2 0  9995
2 45156  87.8856  41.3421 0002127  89.8172 270.3199 13.10371813304597
ONEWEB-0053             
1 45157U 20008AC  26142.69717740  .00000497  00000+0  13863-2 0  9990
2 45157  87.8852  41.3588 0002364  82.2072 277.9324 13.10375895304572
ONEWEB-0054             
1 45158U 20008AD  26142.65566657 -.00000317  00000+0 -94417-3 0  9994
2 45158  87.8849  41.3487 0001785  85.0509 275.0822 13.10370557304683
ONEWEB-0056             
1 45159U 20008AE  26142.47468841 -.00029525  00000+0 -84659-1 0  9998
2 45159  87.8858  41.3776 0001792  88.8646 271.2687 13.10556351304816
ONEWEB-0057             
1 45160U 20008AF  26142.64419544  .00000267  00000+0  72753-3 0  9999
2 45160  87.8849  41.3568 0002378  82.8790 277.2608 13.10371428305003
ONEWEB-0058             
1 45161U 20008AG  26142.47820647  .00000665  00000+0  18684-2 0  9995
2 45161  87.8850  41.3970 0001758  73.3438 286.7882 13.10372971305056
ONEWEB-0059             
1 45162U 20008AH  26142.47487750  .00001293  00000+0  36704-2 0  9991
2 45162  87.8851  41.3966 0001814  74.8330 285.2998 13.10340612304950
ONEWEB-0062             
1 45163U 20008AJ  26142.65054994 -.00000023  00000+0 -10080-3 0  9994
2 45163  87.8855  41.3474 0001493  71.1471 288.9818 13.10369724304842
ONEWEB-0065             
1 45164U 20008AK  26142.14925204 -.00000064  00000+0 -21961-3 0  9995
2 45164  87.8861  41.4550 0002099  87.6360 272.5008 13.10375776304471
STARLINK-1143           
1 45179U 20012B   26142.75002315  .00098110  00000+0  44636-3 0  9993
2 45179  53.0371 322.2644 0002802 300.9097 164.7581 15.83091280  6016
STARLINK-1202           
1 45183U 20012F   26142.45261207  .00038136  00000+0  11762-2 0  9997
2 45183  53.1567  56.1668 0003102 108.9524 251.1815 15.33240929346258
STARLINK-1216           
1 45185U 20012H   26142.17409082  .00038634  00000+0  11821-2 0  9992
2 45185  53.1568  57.3563 0003019 109.4372 250.6957 15.33488882346154
STARLINK-1225           
1 45187U 20012K   26142.04193830  .00038037  00000+0  11664-2 0  9993
2 45187  53.1578  58.4313 0002663 105.3955 254.7341 15.33426260346174
STARLINK-1230           
1 45189U 20012M   26142.76902409  .00034774  00000+0  10677-2 0  9991
2 45189  53.1560  55.0973 0002974 110.6346 249.4975 15.33429754343510
STARLINK-1234           
1 45190U 20012N   26142.47272856  .00056465  00000+0  42601-3 0  9991
2 45190  53.0411 321.6559 0006076 170.9781 189.1346 15.71926713347455
STARLINK-1269           
1 45197U 20012V   26142.17829190  .00013106  00000+0  41110-3 0  9993
2 45197  53.1563  57.7055 0003019  73.9234 286.2100 15.33394906346174
