OBJECT_NAME,OBJECT_ID,EPOCH,MEAN_MOTION,ECCENTRICITY,INCLINATION,RA_OF_ASC_NODE,ARG_OF_PERICENTER,MEAN_ANOMALY,EPHEMERIS_TYPE,CLASSIFICATION_TYPE,NORAD_CAT_ID,ELEMENT_SET_NO,REV_AT_EPOCH,BSTAR,MEAN_MOTION_DOT,MEAN_MOTION_DDOT
ONEWEB-0032,2020-008L,2026-05-22T15:37:11.762112,13.10370508,.0002342,87.8849,41.3537,80.0815,280.0576,0,U,45141,999,30495,-.21091E-3,-.61E-6,0
ONEWEB-0033,2020-008M,2026-05-22T16:51:06.306048,13.10375362,.0001346,87.8850,41.3511,75.5847,284.5430,0,U,45142,999,30487,.18547E-2,.66E-5,0
ONEWEB-0035,2020-008N,2026-05-22T10:00:45.031104,13.10883701,.0001726,87.8845,41.4009,78.6367,281.4955,0,U,45143,999,30456,.16424E-3,.7E-6,0
ONEWEB-0036,2020-008P,2026-05-22T16:30:23.532768,13.09824650,.0002058,87.8875,41.3498,82.2314,277.9046,0,U,45144,999,30502,.32693E-3,.126E-5,0
ONEWEB-0038,2020-008Q,2026-05-22T09:07:59.927808,13.11413937,.000237,87.8922,26.2076,35.6186,324.5099,0,U,45145,999,30694,-.48381E-3,-.159E-5,0
ONEWEB-0039,2020-008R,2026-05-22T16:55:53.880672,13.10373481,.0002327,87.8855,41.3401,76.2978,283.8408,0,U,45146,999,30482,.19552E-2,.695E-5,0
ONEWEB-0040,2020-008S,2026-05-22T16:46:19.517664,13.10375518,.0001837,87.8854,41.3529,75.1286,285.0045,0,U,45147,999,30452,.16038E-2,.573E-5,0
ONEWEB-0043,2020-008U,2026-05-22T16:48:43.738272,13.10377399,.0002506,87.8858,41.3384,76.2914,283.8492,0,U,45149,999,30484,.84925E-5,.16E-6,0
ONEWEB-0044,2020-008V,2026-05-22T15:39:23.149728,13.10370441,.0002015,87.8857,41.3478,76.9056,283.2296,0,U,45150,999,30513,-.48979E-3,-.158E-5,0
ONEWEB-0045,2020-008W,2026-05-22T09:00:29.139264,13.11413609,.0001912,87.8916,26.1926,78.5760,281.5583,0,U,45151,999,30702,.23539E-3,.96E-6,0
ONEWEB-0047,2020-008X,2026-05-22T15:29:46.019328,13.10395937,.0001819,87.8850,41.3488,74.2743,285.8585,0,U,45152,999,30485,.69608E-2,.2444E-4,0
ONEWEB-0048,2020-008Y,2026-05-22T09:52:48.041760,13.10370811,.0001817,87.8850,41.4186,78.7363,281.3969,0,U,45153,999,30443,.11535E-2,.415E-5,0
ONEWEB-0049,2020-008Z,2026-05-22T09:57:23.059872,13.10370398,.0002061,87.8848,41.4067,90.5432,269.5931,0,U,45154,999,30465,.67269E-3,.247E-5,0
ONEWEB-0051,2020-008AA,2026-05-22T14:27:39.358368,13.11413957,.0001867,87.8908,26.1569,82.5959,277.5381,0,U,45155,999,30773,.5296E-3,.2E-5,0
ONEWEB-0052,2020-008AB,2026-05-22T15:56:18.583008,13.10371813,.0002127,87.8856,41.3421,89.8172,270.3199,0,U,45156,999,30459,-.18609E-2,-.637E-5,0
ONEWEB-0053,2020-008AC,2026-05-22T16:43:56.127360,13.10375895,.0002364,87.8852,41.3588,82.2072,277.9324,0,U,45157,999,30457,.13863E-2,.497E-5,0
ONEWEB-0054,2020-008AD,2026-05-22T15:44:09.591648,13.10370557,.0001785,87.8849,41.3487,85.0509,275.0822,0,U,45158,999,30468,-.94417E-3,-.317E-5,0
ONEWEB-0056,2020-008AE,2026-05-22T11:23:33.078624,13.10556351,.0001792,87.8858,41.3776,88.8646,271.2687,0,U,45159,999,30481,-.84659E-1,-.29525E-3,0
ONEWEB-0057,2020-008AF,2026-05-22T15:27:38.486016,13.10371428,.0002378,87.8849,41.3568,82.8790,277.2608,0,U,45160,999,30500,.72753E-3,.267E-5,0
ONEWEB-0058,2020-008AG,2026-05-22T11:28:37.039008,13.10372971,.0001758,87.8850,41.3970,73.3438,286.7882,0,U,45161,999,30505,.18684E-2,.665E-5,0
ONEWEB-0059,2020-008AH,2026-05-22T11:23:49.416000,13.10340612,.0001814,87.8851,41.3966,74.8330,285.2998,0,U,45162,999,30495,.36704E-2,.1293E-4,0
ONEWEB-0062,2020-008AJ,2026-05-22T15:36:47.514816,13.10369724,.0001493,87.8855,41.3474,71.1471,288.9818,0,U,45163,999,30484,-.1008E-3,-.23E-6,0
ONEWEB-0065,2020-008AK,2026-05-22T03:34:55.376256,13.10375776,.00020993,87.8861,41.4550,87.6360,272.5008,0,U,45164,999,30447,-.21960867E-3,-.64E-6,0
STARLINK-1143,2020-012B,2026-05-22T18:00:02.000160,15.83091280,.0002802,53.0371,322.2644,300.9097,164.7581,0,U,45179,999,601,.44636E-3,.9811E-3,0
STARLINK-1202,2020-012F,2026-05-22T10:51:45.682848,15.33240929,.0003102,53.1567,56.1668,108.9524,251.1815,0,U,45183,999,34625,.11762E-2,.38136E-3,0
STARLINK-1216,2020-012H,2026-05-22T04:10:41.446848,15.33488882,.00030195,53.1568,57.3563,109.4372,250.6957,0,U,45185,999,34615,.11821281E-2,.38634E-3,0
STARLINK-1225,2020-012K,2026-05-22T01:00:23.469120,15.33426260,.00026632,53.1578,58.4313,105.3955,254.7341,0,U,45187,999,34617,.11664361E-2,.38037E-3,0
STARLINK-1230,2020-012M,2026-05-22T18:27:23.681376,15.33429754,.0002974,53.1560,55.0973,110.6346,249.4975,0,U,45189,999,34351,.10677E-2,.34774E-3,0
STARLINK-1234,2020-012N,2026-05-22T11:20:43.747584,15.71926713,.0006076,53.0411,321.6559,170.9781,189.1346,0,U,45190,999,34745,.42601E-3,.56465E-3,0
STARLINK-1269,2020-012V,2026-05-22T04:16:44.420160,15.33394906,.00030194,53.1563,57.7055,73.9234,286.2100,0,U,45197,999,34617,.41109843E-3,.13106E-3,0
